LYNK TOWER 4            
1 55034U 23001AB  26068.67743801  .00009160  00000+0  30014-3 0  9997
2 55034  97.3324 128.5940 0010321 112.3386 247.8950 15.31819885176588
STARLINK-31484          
1 59005U 24036H   26068.34573694 -.00001400  00000+0 -35185-4 0  9999
2 59005  53.1600  79.5068 0000064 214.6339 145.4658 15.30188299115274
